STARLINK-32550          
1 62131U 24222T   26068.54266451  .00023218  00000+0  85032-3 0  9996
2 62131  42.9979 137.2508 0001625 252.2152 107.8523 15.27589967 72772
LIME                    
1 62648U 25009AR  26068.73906781  .00013254  00000+0  47723-3 0  9995
2 62648  97.3985 151.4831 0001635  35.9029 324.2320 15.28703313 63766
